NORAD_CAT_ID,OBJECT_NAME,OBJECT_TYPE,EPOCH,MEAN_MOTION,ECCENTRICITY,INCLINATION,RA_OF_ASC_NODE,ARG_OF_PERICENTER,MEAN_ANOMALY,BSTAR,MEAN_MOTION_DOT,MEAN_MOTION_DDOT,TLE_LINE0,TLE_LINE1,TLE_LINE2,SEMIMAJOR_AXIS,PERIOD,APOGEE,PERIGEE,DECAYED
52861.0,STARLINK-4112,PAYLOAD,2023-12-16 13:40:05,15.08842888,0.0001249,53.2165,78.8587,89.0107,271.1029,0.00043392,6.625e-05,0.0,0 STARLINK-4112,1 52861U 22062AH  23350.56950423  .00006625  00000-0  43392-3 0  9994,2 52861  53.2165  78.8587 0001249  89.0107 271.1029 15.08842888 83027,6917.872,95.437,540.601,538.873,0.0
52861.0,STARLINK-4112,PAYLOAD,2023-12-16 21:37:00,15.08844155,0.0001387,53.2166,77.3725,77.0496,283.0651,0.00014791,2.067e-05,0.0,0 STARLINK-4112,1 52861U 22062AH  23350.90070266  .00002067  00000-0  14791-3 0  9997,2 52861  53.2166  77.3725 0001387  77.0496 283.0651 15.08844155 83074,6917.868,95.437,540.692,538.773,0.0
52861.0,STARLINK-4112,PAYLOAD,2023-12-17 11:55:29,15.08838927,0.0001572,53.2188,74.6896,73.5073,286.6092,0.00013566,1.872e-05,0.0,0 STARLINK-4112,1 52861U 22062AH  23351.49686854  .00001872  00000-0  13566-3 0  9990,2 52861  53.2188  74.6896 0001572  73.5073 286.6092 15.08838927 83657,6917.884,95.438,540.836,538.661,0.0
52861.0,STARLINK-4112,PAYLOAD,2023-12-17 13:30:52,15.08841754,0.000202,53.2198,74.389,57.6504,302.4683,0.00020758,3.017e-05,0.0,0 STARLINK-4112,1 52861U 22062AH  23351.56310947  .00003017  00000-0  20758-3 0  9999,2 52861  53.2198  74.3890 0002020  57.6504 302.4683 15.08841754 83172,6917.875,95.437,541.137,538.343,0.0
52861.0,STARLINK-4112,PAYLOAD,2023-12-18 11:46:16,15.08839963,0.000149,53.2175,70.2334,85.6024,274.5139,-6.7124e-05,-1.356e-05,0.0,0 STARLINK-4112,1 52861U 22062AH  23352.49046859 -.00001356  00000-0 -67124-4 0  9995,2 52861  53.2175  70.2334 0001490  85.6024 274.5139 15.08839963 83313,6917.881,95.438,540.776,538.715,0.0
52861.0,STARLINK-4112,PAYLOAD,2023-12-19 11:37:02,15.08856943,0.0001426,53.2173,65.7774,91.3953,268.7202,0.0002601,3.856e-05,0.0,0 STARLINK-4112,1 52861U 22062AH  23353.48406075  .00003856  00000-0  26010-3 0  9998,2 52861  53.2173  65.7774 0001426  91.3953 268.7202 15.08856943 83955,6917.829,95.436,540.68,538.707,0.0
52861.0,STARLINK-4112,PAYLOAD,2023-12-20 11:27:50,15.08839769,0.0001462,53.218,61.3091,111.4067,248.7081,4.2425e-05,3.87e-06,0.0,0 STARLINK-4112,1 52861U 22062AH  23354.47766772  .00000387  00000-0  42425-4 0  9996,2 52861  53.2180  61.3091 0001462 111.4067 248.7081 15.08839769 84105,6917.881,95.438,540.757,538.735,0.0
52861.0,STARLINK-4112,PAYLOAD,2023-12-21 11:18:37,15.08853947,0.0001406,53.2173,56.8535,102.5265,257.5885,0.00027551,4.101e-05,0.0,0 STARLINK-4112,1 52861U 22062AH  23355.47126279  .00004101  00000-0  27551-3 0  9999,2 52861  53.2173  56.8535 0001406 102.5265 257.5885 15.08853947 84258,6917.838,95.437,540.675,538.73,0.0
52861.0,STARLINK-4112,PAYLOAD,2023-12-22 09:34:01,15.08844049,0.0001579,53.2176,52.6913,105.2005,254.9162,0.0002281,3.344e-05,0.0,0 STARLINK-4112,1 52861U 22062AH  23356.39862937  .00003344  00000-0  22810-3 0  9990,2 52861  53.2176  52.6913 0001579 105.2005 254.9162 15.08844049 84395,6917.868,95.437,540.825,538.641,0.0
52861.0,STARLINK-4112,PAYLOAD,2023-12-23 11:00:12,15.08841295,0.0001576,53.2176,47.934,78.2417,281.8752,0.00017083,2.432e-05,0.0,0 STARLINK-4112,1 52861U 22062AH  23357.45847308  .00002432  00000-0  17083-3 0  9996,2 52861  53.2176  47.9340 0001576  78.2417 281.8752 15.08841295 84551,6917.876,95.437,540.832,538.651,0.0
52861.0,STARLINK-4112,PAYLOAD,2023-12-23 12:35:35,15.08844682,0.0001557,53.2177,47.6346,95.479,264.638,0.00025927,3.841e-05,0.0,0 STARLINK-4112,1 52861U 22062AH  23357.52471106  .00003841  00000-0  25927-3 0  9994,2 52861  53.2177  47.6346 0001557  95.4790 264.6380 15.08844682 84075,6917.866,95.437,540.808,538.654,0.0
52861.0,STARLINK-4112,PAYLOAD,2023-12-24 12:26:21,15.08854926,0.0001468,53.2167,43.1743,98.7847,261.3311,0.00046464,7.117e-05,0.0,0 STARLINK-4112,1 52861U 22062AH  23358.51830847  .00007117  00000-0  46464-3 0  9994,2 52861  53.2167  43.1743 0001468  98.7847 261.3311 15.08854926 84223,6917.835,95.437,540.715,538.684,0.0
52861.0,STARLINK-4112,PAYLOAD,2023-12-25 02:44:50,15.08838842,0.0001485,53.2178,40.4985,110.817,249.2981,0.00010551,1.392e-05,0.0,0 STARLINK-4112,1 52861U 22062AH  23359.11447307  .00001392  00000-0  10551-3 0  9993,2 52861  53.2178  40.4985 0001485 110.8170 249.2981 15.08838842 84808,6917.884,95.438,540.776,538.722,0.0
52861.0,STARLINK-4112,PAYLOAD,2023-12-25 09:06:22,15.08844622,0.000183,53.2173,39.3081,117.11,243.0079,9.4518e-05,1.217e-05,0.0,0 STARLINK-4112,1 52861U 22062AH  23359.37943012  .00001217  00000-0  94518-4 0  9997,2 52861  53.2173  39.3081 0001830 117.1100 243.0079 15.08844622 84357,6917.866,95.437,540.997,538.465,0.0
52861.0,STARLINK-4112,PAYLOAD,2023-12-25 23:24:50,15.0886751,0.0001528,53.2169,36.6337,81.2865,278.83,0.00057311,8.852e-05,0.0,0 STARLINK-4112,1 52861U 22062AH  23359.97558056  .00008852  00000-0  57311-3 0  9994,2 52861  53.2169  36.6337 0001528  81.2865 278.8300 15.08867510 84937,6917.796,95.436,540.718,538.604,0.0
52861.0,STARLINK-4112,PAYLOAD,2023-12-26 08:57:09,15.08832811,0.0001577,53.2165,34.8481,126.7314,233.3823,-0.00047063,-7.769e-05,0.0,0 STARLINK-4112,1 52861U 22062AH  23360.37302287 -.00007769  00000-0 -47063-3 0  9994,2 52861  53.2165  34.8481 0001577 126.7314 233.3823 15.08832811 84999,6917.902,95.438,540.858,538.676,0.0
52861.0,STARLINK-4112,PAYLOAD,2023-12-26 12:07:55,15.08828552,0.0001674,53.2171,34.2521,121.7785,238.337,-0.00089462,-0.00014493,0.0,0 STARLINK-4112,1 52861U 22062AH  23360.50549998 -.00014493  00000-0 -89462-3 0  9992,2 52861  53.2171  34.2521 0001674 121.7785 238.3370 15.08828552 84528,6917.915,95.438,540.938,538.622,0.0
52861.0,STARLINK-4112,PAYLOAD,2023-12-27 08:47:57,15.08832261,0.0001451,53.2171,30.3867,89.7996,270.3163,0.0014534,0.00022914,0.0,0 STARLINK-4112,1 52861U 22062AH  23361.36663400  .00022914  00000-0  14534-2 0  9994,2 52861  53.2171  30.3867 0001451  89.7996 270.3163 15.08832261 85145,6917.904,95.438,540.773,538.765,0.0
52861.0,STARLINK-4112,PAYLOAD,2023-12-28 08:38:44,15.08842217,0.0001494,53.2169,25.9257,96.5789,263.5373,0.00064328,9.965e-05,0.0,0 STARLINK-4112,1 52861U 22062AH  23362.36023865  .00009965  00000-0  64328-3 0  9998,2 52861  53.2169  25.9257 0001494  96.5789 263.5373 15.08842217 85293,6917.874,95.437,540.772,538.705,0.0
52861.0,STARLINK-4112,PAYLOAD,2023-12-29 02:07:59,15.08836024,0.0001624,53.2177,22.6543,93.8392,266.2786,0.00017718,2.533e-05,0.0,0 STARLINK-4112,1 52861U 22062AH  23363.08888220  .00002533  00000-0  17718-3 0  9997,2 52861  53.2177  22.6543 0001624  93.8392 266.2786 15.08836024 85409,6917.893,95.438,540.881,538.634,0.0
52861.0,STARLINK-4112,PAYLOAD,2023-12-29 08:29:32,15.08834998,0.0001604,53.2177,21.4654,94.042,266.0756,0.00030023,4.493e-05,0.0,0 STARLINK-4112,1 52861U 22062AH  23363.35384473  .00004493  00000-0  30023-3 0  9999,2 52861  53.2177  21.4654 0001604  94.0420 266.0756 15.08834998 84954,6917.896,95.438,540.87,538.651,0.0
52861.0,STARLINK-4112,PAYLOAD,2023-12-30 11:31:04,15.08846872,0.0001645,53.2175,16.4086,97.1572,262.9607,0.00022744,3.334e-05,0.0,0 STARLINK-4112,1 52861U 22062AH  23364.47991891  .00003334  00000-0  22744-3 0  9995,2 52861  53.2175  16.4086 0001645  97.1572 262.9607 15.08846872 85610,6917.859,95.437,540.862,538.586,0.0
52861.0,STARLINK-4112,PAYLOAD,2023-12-30 19:28:00,15.08843355,0.0001522,53.2162,14.9205,95.371,264.7456,0.00014146,1.964e-05,0.0,0 STARLINK-4112,1 52861U 22062AH  23364.81111965  .00001964  00000-0  14146-3 0  9993,2 52861  53.2162  14.9205 0001522  95.3710 264.7456 15.08843355 85176,6917.87,95.437,540.788,538.682,0.0
52861.0,STARLINK-4112,PAYLOAD,2023-12-31 00:14:10,15.08832693,0.0001218,53.2182,14.0338,73.907,286.2056,-6.6404e-05,-1.344e-05,0.0,0 STARLINK-4112,1 52861U 22062AH  23365.00984446 -.00001344  00000-0 -66404-4 0  9996,2 52861  53.2182  14.0338 0001218  73.9070 286.2056 15.08832693 85694,6917.903,95.438,540.61,538.925,0.0
52861.0,STARLINK-4112,PAYLOAD,2023-12-31 08:11:06,15.08834786,0.0001544,53.2175,12.5467,79.3503,280.7663,1.0965e-05,-1.13e-06,0.0,0 STARLINK-4112,1 52861U 22062AH  23365.34104663 -.00000113  00000-0  10965-4 0  9991,2 52861  53.2175  12.5467 0001544  79.3503 280.7663 15.08834786 85255,6917.896,95.438,540.829,538.693,0.0
52861.0,STARLINK-4112,PAYLOAD,2024-01-01 09:37:16,15.0883484,0.0001623,53.219,7.7865,112.3868,247.7296,-9.4253e-06,-4.38e-06,0.0,0 STARLINK-4112,1 52861U 22062AH  24001.40088299 -.00000438  00000-0 -94253-5 0  9996,2 52861  53.2190   7.7865 0001623 112.3868 247.7296 15.08834840 85908,6917.896,95.438,540.884,538.638,0.0
52861.0,STARLINK-4112,PAYLOAD,2024-01-02 06:17:16,15.08839149,0.0001592,53.2186,3.923,80.4585,279.6587,0.00015328,2.152e-05,0.0,0 STARLINK-4112,1 52861U 22062AH  24002.26200122  .00002152  00000-0  15328-3 0  9999,2 52861  53.2186   3.9230 0001592  80.4585 279.6587 15.08839149 85547,6917.883,95.438,540.849,538.647,0.0
52861.0,STARLINK-4112,PAYLOAD,2024-01-03 02:57:18,15.08830075,0.0001684,53.2172,0.0589,59.5909,300.525,0.00015746,2.218e-05,0.0,0 STARLINK-4112,1 52861U 22062AH  24003.12312779  .00002218  00000-0  15746-3 0  9994,2 52861  53.2172   0.0589 0001684  59.5909 300.5250 15.08830075 86165,6917.911,95.438,540.941,538.611,0.0
52861.0,STARLINK-4112,PAYLOAD,2024-01-03 09:18:50,15.08833377,0.0001502,53.217,358.8679,67.7003,292.4148,0.00016097,2.274e-05,0.0,0 STARLINK-4112,1 52861U 22062AH  24003.38808726  .00002274  00000-0  16097-3 0  9996,2 52861  53.2170 358.8679 0001502  67.7003 292.4148 15.08833377 85715,6917.901,95.438,540.805,538.727,0.0
52861.0,STARLINK-4112,PAYLOAD,2024-01-04 04:23:28,15.08841144,0.0001487,53.217,355.2987,97.7662,262.3499,0.00018255,2.619e-05,0.0,0 STARLINK-4112,1 52861U 22062AH  24004.18296575  .00002619  00000-0  18255-3 0  9999,2 52861  53.2170 355.2987 0001487  97.7662 262.3499 15.08841144 86328,6917.877,95.437,540.771,538.713,0.0
